SL-3 R/B                
1 13819U 83010B   26115.65165398  .00013926  00000+0  26711-3 0  9992
2 13819  81.1012 304.5985 0015168 241.6612 118.3104 15.47730670365208
SL-3 R/B                
1 14208U 83075B   26115.82694265  .00012110  00000+0  30829-3 0  9994
2 14208  97.6130 122.2300 0022856  64.0476 296.3120 15.39463586337403
COSMOS 1536             
1 14699U 84013A   26115.85834116  .00008491  00000+0  34339-3 0  9992
2 14699  82.5446  60.9300 0016134 113.1726 247.1213 15.24449374279803
SL-14 R/B               
1 14820U 84027B   26115.69395032  .00000360  00000+0  38234-4 0  9990
2 14820  82.5444 200.9369 0018179 172.9630 187.1845 14.86022200254614
SL-8 R/B                
1 15483U 85006B   26115.63315176  .00000168  00000+0  64473-4 0  9999
2 15483  74.0454 174.7711 0017196  76.7104  33.6084 14.37811544160777
SL-12 R/B(2)            
1 15772U 85042D   26115.82796244  .00000118  00000+0  74482-4 0  9996
2 15772  71.1096 348.1406 0033452  50.0637  23.1334 14.21995065121093
SL-14 R/B               
1 15945U 85069B   26115.66432021  .00000339  00000+0  35426-4 0  9999
2 15945  82.5274 340.7717 0019789  40.4614 319.8070 14.86476918179814
SL-16 R/B               
1 16182U 85097B   26115.87261367 -.00000222  00000+0 -87104-4 0  9993
2 16182  71.0044  41.2161 0008090 201.5347 215.9981 14.16606234 93910
SL-14 R/B               
1 16496U 86006B   26115.76372749  .00000632  00000+0  63950-4 0  9993
2 16496  82.5293 215.4355 0077839 116.2272 244.6973 14.86890952156208
COSMOS 1743             
1 16719U 86034A   26115.77026161  .00044079  00000+0  49097-3 0  9995
2 16719  82.5325  24.2675 0007539 104.1152 256.0945 15.62615159187597
SL-14 R/B               
1 16792U 86046B   26115.82040742  .00000456  00000+0  49598-4 0  9994
2 16792  82.4845  35.6502 0024644  73.3343 287.0575 14.85634462133400
SL-14 R/B               
1 16882U 86055B   26115.87585839  .00000474  00000+0  51677-4 0  9991
2 16882  82.5186  82.3064 0019040 171.2824 218.8713 14.85682928126371
AJISAI (EGS)            
1 16908U 86061A   26115.87025992 -.00000079  00000+0  13314-3 0  9993
2 16908  50.0099 308.2702 0011425  47.9987  86.7629 12.44515983473877
